ONEWEB-0216             
1 48801U 21045AL  23265.55815606 -.00000064  00000+0 -20295-3 0  9999
2 48801  87.8936  98.0592 0001953  94.3386 265.7968 13.15545945113008
ONEWEB-0239             
1 48802U 21045AM  23265.56239800 -.00000062  00000+0 -19890-3 0  9994
2 48802  87.8945  98.0098 0002542  70.5315 289.6089 13.15550355113047
ONEWEB-0249             
1 48967U 21060A   23265.52804475  .00000113  00000+0  26171-3 0  9990
2 48967  87.9008  67.5385 0001652  91.3728 268.7593 13.16592453108206
ONEWEB-0250             
1 48968U 21060B   23265.68426326  .00000107  00000+0  24584-3 0  9992
2 48968  87.9006  67.4929 0001929  83.0855 277.0495 13.16596600109498
ONEWEB-0252             
1 48970U 21060D   23265.48372236  .00000458  00000+0  11652-2 0  9993
2 48970  87.9007  67.5405 0002223 102.9984 257.1395 13.16593141108241
ONEWEB-0253             
1 48971U 21060E   23265.70115596  .00000049  00000+0  94138-4 0  9991
2 48971  87.9006  67.5746 0002092  90.7624 269.3746 13.16593250109481
ONEWEB-0254             
1 48972U 21060F   23265.48160209  .00000010  00000+0 -66771-5 0  9990
2 48972  87.9007  67.5298 0002029  88.2842 271.8521 13.16596109108179
ONEWEB-0255             
1 48973U 21060G   23265.74759623 -.00001374  00000+0 -36274-2 0  9991
2 48973  87.9009  67.5128 0001635  91.9734 268.1584 13.16604740109571
